STARLINK-31361          
1 58974U 24031K   26165.42051578 -.00003906  00000+0 -11993-3 0  9990
2 58974  53.1594 207.3507 0001354 100.4697 259.6456 15.30171953131340
STARLINK-31369          
1 58975U 24031L   26165.42681759 -.00000866  00000+0 -17118-4 0  9999
2 58975  53.1597 207.3886 0001127  91.9558 268.1572 15.30190644131322
STARLINK-31324          
1 58976U 24031M   26165.42999105  .00001891  00000+0  75990-4 0  9996
2 58976  53.1592 207.4063 0001241  82.5969 277.5172 15.30188717131323
STARLINK-31358          
1 58977U 24031N   26165.39726327  .00000346  00000+0  23797-4 0  9999
2 58977  53.1599 207.1973 0001145  86.9663 273.1469 15.30198527131321
STARLINK-31355          
1 58978U 24031P   26165.43314888 -.00000320  00000+0  13242-5 0  9998
2 58978  53.1595 207.4280 0001160  90.2023 269.9110 15.30189510131325
STARLINK-31380          
1 58979U 24031Q   26165.43631454 -.00001406  00000+0 -35357-4 0  9997
2 58979  53.1596 207.4483 0001367  73.8361 286.2791 15.30196497131322
STARLINK-31353          
1 58980U 24031R   26165.43420541 -.00001168  00000+0 -27334-4 0  9993
2 58980  53.1596 207.4337 0001267 103.4575 256.6567 15.30186849131320
STARLINK-31339          
1 58981U 24031S   26165.39950862  .00000043  00000+0  12412-4 0  9993
2 58981  53.1599 206.5143 0001196  96.6239 263.4900 15.34391560131330
STARLINK-31384          
1 58983U 24031U   26165.39319215  .00000164  00000+0  15993-4 0  9997
2 58983  53.1605 206.4738 0001340  94.7446 265.3710 15.34394645131336
STARLINK-31379          
1 58984U 24031V   26165.38471684  .00000092  00000+0  15250-4 0  9992
2 58984  53.1599 207.8364 0001279  80.1859 279.9287 15.30191654131316
STARLINK-31385          
1 58985U 24031W   26165.42829905  .00001678  00000+0  60818-4 0  9992
2 58985  53.1594 203.8146 0001185  81.8694 278.2443 15.34376742131376
STARLINK-31229          
1 58986U 24031X   26165.39106907 -.00004582  00000+0 -14293-3 0  9993
2 58986  53.1593 207.8754 0001238  79.1641 280.9499 15.30143943131312
STARLINK-31468          
1 58998U 24036A   26164.80932602  .00001430  00000+0  60418-4 0  9993
2 58998  53.1599 351.3841 0000946  95.5249 264.5860 15.30184209130054
STARLINK-31440          
1 58999U 24036B   26165.59521438  .00012595  00000+0  43657-3 0  9991
2 58999  53.1585 347.7490 0001165  97.2591 262.8542 15.30205511129351
STARLINK-31529          
1 59000U 24036C   26165.22074285 -.00004196  00000+0 -12971-3 0  9993
2 59000  53.1617 347.5547 0001141  99.6683 260.4447 15.30174845130056
STARLINK-31431          
1 59002U 24036E   26165.24764904  .00001523  00000+0  63537-4 0  9995
2 59002  53.1622 349.8475 0001150 103.9015 256.2114 15.30193511130108
STARLINK-31435          
1 59004U 24036G   26165.20438347  .00002178  00000+0  85658-4 0  9997
2 59004  53.1631 349.5772 0001167 110.2054 249.9072 15.30188352130119
STARLINK-31484          
1 59005U 24036H   26165.20754837 -.00000027  00000+0  11215-4 0  9993
2 59005  53.1633 349.5982 0001443 108.9816 251.1341 15.30193088130107
STARLINK-31450          
1 59006U 24036J   26165.21493544 -.00000785  00000+0 -14368-4 0  9994
2 59006  53.1618 349.6383 0001242  95.7135 264.4007 15.30194687130103
STARLINK-31456          
1 59007U 24036K   26165.21071351 -.00000236  00000+0  41488-5 0  9997
2 59007  53.1623 349.6147 0001294 101.3875 258.7272 15.30194644130103
STARLINK-31460          
1 59008U 24036L   26165.24026045  .00000426  00000+0  26532-4 0  9993
2 59008  53.1625 349.7986 0001427  97.7298 262.3865 15.30189963130100
STARLINK-31488          
1 59009U 24036M   26165.20648933 -.00000046  00000+0  10572-4 0  9992
2 59009  53.1621 349.5841 0001098  74.8946 285.2176 15.30201213130107
STARLINK-31528          
1 59010U 24036N   26164.80416355  .00002395  00000+0  92989-4 0  9990
2 59010  53.1602 352.0577 0001090  93.2851 266.8274 15.30183890130031
STARLINK-31491          
1 59011U 24036P   26164.80521995  .00000047  00000+0  13720-4 0  9996
2 59011  53.1624 352.0607 0000931 108.6284 251.4818 15.30193844130038
STARLINK-31465          
1 59012U 24036Q   26164.79993378  .00008164  00000+0  28720-3 0  9996
2 59012  53.1612 352.0239 0001388  99.0145 261.1013 15.30231238130038
STARLINK-31389          
1 59013U 24036R   26164.80310620  .00000096  00000+0  15373-4 0  9999
2 59013  53.1630 352.0468 0001246  98.2237 261.8905 15.30191252130048
STARLINK-31454          
1 59014U 24036S   26164.79677704  .00000603  00000+0  32479-4 0  9997
2 59014  53.1626 352.0047 0001339  90.1211 269.9943 15.30193127130036
STARLINK-31521          
1 59015U 24036T   26164.79572227  .00000754  00000+0  37581-4 0  9998
2 59015  53.1625 352.0011 0001287  91.7998 268.3151 15.30190275130033
STARLINK-31526          
1 59016U 24036U   26165.14658536 -.00000248  00000+0  37788-5 0  9996
2 59016  53.1623 324.3085 0001154  88.1059 272.0074 15.31702654130459
STARLINK-31406          
1 59017U 24036V   26164.79527584 -.00000182  00000+0  57337-5 0  9994
2 59017  53.1609 337.0962 0001071  82.7854 277.3271 15.34395330130246
