OBJECT_NAME,OBJECT_ID,EPOCH,MEAN_MOTION,ECCENTRICITY,INCLINATION,RA_OF_ASC_NODE,ARG_OF_PERICENTER,MEAN_ANOMALY,EPHEMERIS_TYPE,CLASSIFICATION_TYPE,NORAD_CAT_ID,ELEMENT_SET_NO,REV_AT_EPOCH,BSTAR,MEAN_MOTION_DOT,MEAN_MOTION_DDOT
STARLINK-31361,2024-031K,2026-06-14T10:05:32.563392,15.30171953,.00013542,53.1594,207.3507,100.4697,259.6456,0,U,58974,999,13134,-.11992741E-3,-.3906E-4,0
STARLINK-31369,2024-031L,2026-06-14T10:14:37.039776,15.30190644,.00011277,53.1597,207.3886,91.9558,268.1572,0,U,58975,999,13132,-.17117965E-4,-.866E-5,0
STARLINK-31324,2024-031M,2026-06-14T10:19:11.226720,15.30188717,.00012413,53.1592,207.4063,82.5969,277.5172,0,U,58976,999,13132,.75990087E-4,.1891E-4,0
STARLINK-31358,2024-031N,2026-06-14T09:32:03.546528,15.30198527,.00011453,53.1599,207.1973,86.9663,273.1469,0,U,58977,999,13132,.23797494E-4,.346E-5,0
STARLINK-31355,2024-031P,2026-06-14T10:23:44.063232,15.30189510,.00011602,53.1595,207.4280,90.2023,269.9110,0,U,58978,999,13132,.1324235E-5,-.32E-5,0
STARLINK-31380,2024-031Q,2026-06-14T10:28:17.576256,15.30196497,.00013676,53.1596,207.4483,73.8361,286.2791,0,U,58979,999,13132,-.35356872E-4,-.1406E-4,0
STARLINK-31353,2024-031R,2026-06-14T10:25:15.347424,15.30186849,.00012674,53.1596,207.4337,103.4575,256.6567,0,U,58980,999,13132,-.27334394E-4,-.1168E-4,0
STARLINK-31339,2024-031S,2026-06-14T09:35:17.544768,15.34391560,.00011964,53.1599,206.5143,96.6239,263.4900,0,U,58981,999,13133,.12412304E-4,.43E-6,0
STARLINK-31384,2024-031U,2026-06-14T09:26:11.801760,15.34394645,.00013409,53.1605,206.4738,94.7446,265.3710,0,U,58983,999,13133,.15992557E-4,.164E-5,0
STARLINK-31379,2024-031V,2026-06-14T09:13:59.534976,15.30191654,.00012795,53.1599,207.8364,80.1859,279.9287,0,U,58984,999,13131,.15250014E-4,.92E-6,0
STARLINK-31385,2024-031W,2026-06-14T10:16:45.037920,15.34376742,.0001185,53.1594,203.8146,81.8694,278.2443,0,U,58985,999,13137,.6081838E-4,.1678E-4,0
STARLINK-31229,2024-031X,2026-06-14T09:23:08.367648,15.30143943,.00012386,53.1593,207.8754,79.1641,280.9499,0,U,58986,999,13131,-.14293129E-3,-.4582E-4,0
STARLINK-31468,2024-036A,2026-06-13T19:25:25.768128,15.30184209,.00009468,53.1599,351.3841,95.5249,264.5860,0,U,58998,999,13005,.60418221E-4,.143E-4,0
STARLINK-31440,2024-036B,2026-06-14T14:17:06.522432,15.30205511,.00011656,53.1585,347.7490,97.2591,262.8542,0,U,58999,999,12935,.43657343E-3,.12595E-3,0
STARLINK-31529,2024-036C,2026-06-14T05:17:52.182240,15.30174845,.0001141,53.1617,347.5547,99.6683,260.4447,0,U,59000,999,13005,-.12971E-3,-.4196E-4,0
STARLINK-31431,2024-036E,2026-06-14T05:56:36.877056,15.30193511,.000115,53.1622,349.8475,103.9015,256.2114,0,U,59002,999,13010,.63537E-4,.1523E-4,0
STARLINK-31435,2024-036G,2026-06-14T04:54:18.731808,15.30188352,.00011673,53.1631,349.5772,110.2054,249.9072,0,U,59004,999,13011,.85658349E-4,.2178E-4,0
STARLINK-31484,2024-036H,2026-06-14T04:58:52.179168,15.30193088,.00014433,53.1633,349.5982,108.9816,251.1341,0,U,59005,999,13010,.11215051E-4,-.27E-6,0
STARLINK-31450,2024-036J,2026-06-14T05:09:30.422016,15.30194687,.0001242,53.1618,349.6383,95.7135,264.4007,0,U,59006,999,13010,-.14368E-4,-.785E-5,0
STARLINK-31456,2024-036K,2026-06-14T05:03:25.647264,15.30194644,.0001294,53.1623,349.6147,101.3875,258.7272,0,U,59007,999,13010,.41488E-5,-.236E-5,0
STARLINK-31460,2024-036L,2026-06-14T05:45:58.502880,15.30189963,.0001427,53.1625,349.7986,97.7298,262.3865,0,U,59008,999,13010,.26532E-4,.426E-5,0
STARLINK-31488,2024-036M,2026-06-14T04:57:20.678112,15.30201213,.00010986,53.1621,349.5841,74.8946,285.2176,0,U,59009,999,13010,.10571683E-4,-.46E-6,0
STARLINK-31528,2024-036N,2026-06-13T19:17:59.730720,15.30183890,.000109,53.1602,352.0577,93.2851,266.8274,0,U,59010,999,13003,.92989436E-4,.2395E-4,0
STARLINK-31491,2024-036P,2026-06-13T19:19:31.003680,15.30193844,.00009315,53.1624,352.0607,108.6284,251.4818,0,U,59011,999,13003,.13720225E-4,.47E-6,0
STARLINK-31465,2024-036Q,2026-06-13T19:11:54.278592,15.30231238,.00013883,53.1612,352.0239,99.0145,261.1013,0,U,59012,999,13003,.28720071E-3,.8164E-4,0
STARLINK-31389,2024-036R,2026-06-13T19:16:28.375680,15.30191252,.00012462,53.1630,352.0468,98.2237,261.8905,0,U,59013,999,13004,.15373473E-4,.96E-6,0
STARLINK-31454,2024-036S,2026-06-13T19:07:21.536256,15.30193127,.00013395,53.1626,352.0047,90.1211,269.9943,0,U,59014,999,13003,.32478808E-4,.603E-5,0
STARLINK-31521,2024-036T,2026-06-13T19:05:50.404128,15.30190275,.00012879,53.1625,352.0011,91.7998,268.3151,0,U,59015,999,13003,.3758103E-4,.754E-5,0
STARLINK-31526,2024-036U,2026-06-14T03:31:04.975104,15.31702654,.00011547,53.1623,324.3085,88.1059,272.0074,0,U,59016,999,13045,.3778836E-5,-.248E-5,0
STARLINK-31406,2024-036V,2026-06-13T19:05:11.832576,15.34395330,.00010714,53.1609,337.0962,82.7854,277.3271,0,U,59017,999,13024,.5733737E-5,-.182E-5,0
